{
"type": "FeatureCollection",
"name": "nc_sc_states",
"crs": { "type": "name", "properties": { "name": "urn:ogc:def:crs:EPSG::4269" } },
"features": [
{ "type": "Feature", "properties": { "STATEFP": "45", "NAME": "South Carolina" }, "geometry": { "type": "MultiPolygon", "coordinates": [ [ [ [ -79.503106, 33.017563 ], [ -79.502368, 33.020582 ], [ -79.50097, 33.018191 ], [ -79.503106, 33.017563 ] ] ], [ [ [ -79.55218, 32.988791 ], [ -79.548734, 32.992978 ], [ -79.545219, 32.990715 ], [ -79.55218, 32.988791 ] ] ], [ [ [ -80.182049, 32.547222 ], [ -80.184492, 32.55358 ], [ -80.177151, 32.548264 ], [ -80.182049, 32.547222 ] ] ], [ [ [ -83.35391, 34.699219 ], [ -83.349075, 34.736633 ], [ -83.318939, 34.758331 ], [ -83.323866, 34.789712 ], [ -83.301182, 34.804008 ], [ -83.303131, 34.818745 ], [ -83.268318, 34.821125 ], [ -83.266306, 34.849044 ], [ -83.250163, 34.844597 ], [ -83.234703, 34.870743 ], [ -83.243126, 34.877392 ], [ -83.206253, 34.879677 ], [ -83.169087, 34.918777 ], [ -83.157208, 34.914934 ], [ -83.156235, 34.930984 ], [ -83.111725, 34.935863 ], [ -83.127556, 34.949482 ], [ -83.114021, 34.950912 ], [ -83.12211, 34.964329 ], [ -83.098381, 34.991123 ], [ -83.109557, 35.001197 ], [ -82.787867, 35.085024 ], [ -82.777376, 35.064143 ], [ -82.757704, 35.068019 ], [ -82.72701, 35.094142 ], [ -82.697677, 35.095726 ], [ -82.681443, 35.127918 ], [ -82.662381, 35.118123 ], [ -82.546374, 35.163731 ], [ -82.529973, 35.155617 ], [ -82.460092, 35.178143 ], [ -82.457128, 35.16395 ], [ -82.439595, 35.165863 ], [ -82.39293, 35.215402 ], [ -82.371298, 35.181449 ], [ -82.27492, 35.200071 ], [ -81.043625, 35.149877 ], [ -81.051037, 35.131654 ], [ -81.032806, 35.108049 ], [ -81.058029, 35.07319 ], [ -81.041489, 35.044703 ], [ -80.93495, 35.107409 ], [ -80.782042, 34.935782 ], [ -80.797543, 34.819786 ], [ -79.675299, 34.804744 ], [ -78.547324, 33.856483 ], [ -78.772737, 33.768511 ], [ -78.938076, 33.639826 ], [ -79.084588, 33.483669 ], [ -79.135441, 33.403867 ], [ -79.172108, 33.329123 ], [ -79.175713, 33.21106 ], [ -79.191519, 33.173269 ], [ -79.246423, 33.126007 ], [ -79.328159, 33.090406 ], [ -79.362292, 33.009087 ], [ -79.423138, 33.010183 ], [ -79.401081, 33.011175 ], [ -79.404422, 33.019617 ], [ -79.483271, 33.009785 ], [ -79.525221, 33.037286 ], [ -79.571108, 33.013811 ], [ -79.617611, 32.952726 ], [ -79.607532, 32.92623 ], [ -79.574086, 32.932509 ], [ -79.581058, 32.906417 ], [ -79.698115, 32.851325 ], [ -79.726389, 32.805996 ], [ -79.848797, 32.75363 ], [ -79.878039, 32.785709 ], [ -79.923198, 32.781813 ], [ -79.928546, 32.754233 ], [ -79.87093, 32.742434 ], [ -79.885582, 32.684868 ], [ -79.974299, 32.641024 ], [ -80.000801, 32.605892 ], [ -80.121368, 32.590523 ], [ -80.166552, 32.560224 ], [ -80.236778, 32.542324 ], [ -80.332438, 32.478104 ], [ -80.36041, 32.499813 ], [ -80.413487, 32.470672 ], [ -80.430918, 32.500906 ], [ -80.472068, 32.496964 ], [ -80.479409, 32.445754 ], [ -80.461534, 32.412893 ], [ -80.428302, 32.399321 ], [ -80.463642, 32.340108 ], [ -80.453296, 32.321913 ], [ -80.63297, 32.256925 ], [ -80.645388, 32.260852 ], [ -80.644794, 32.291497 ], [ -80.708145, 32.323734 ], [ -80.733637, 32.319469 ], [ -80.765416, 32.285972 ], [ -80.742361, 32.263766 ], [ -80.717796, 32.266974 ], [ -80.669166, 32.216783 ], [ -80.746794, 32.141824 ], [ -80.812503, 32.109746 ], [ -80.842424, 32.117837 ], [ -80.907519, 32.050935 ], [ -80.889512, 32.037593 ], [ -80.921027, 32.03999 ], [ -81.004305, 32.102367 ], [ -81.038125, 32.083734 ], [ -81.117234, 32.117605 ], [ -81.112236, 32.150804 ], [ -81.129746, 32.165933 ], [ -81.111132, 32.172703 ], [ -81.114016, 32.195448 ], [ -81.152153, 32.222322 ], [ -81.156587, 32.24391 ], [ -81.119867, 32.286203 ], [ -81.137926, 32.328662 ], [ -81.128616, 32.338623 ], [ -81.143794, 32.351529 ], [ -81.159832, 32.339964 ], [ -81.205507, 32.423612 ], [ -81.204496, 32.452779 ], [ -81.186952, 32.463566 ], [ -81.233585, 32.498488 ], [ -81.23342, 32.517963 ], [ -81.279905, 32.536592 ], [ -81.281324, 32.556464 ], [ -81.36695, 32.577019 ], [ -81.418116, 32.628349 ], [ -81.393033, 32.651543 ], [ -81.407193, 32.660519 ], [ -81.409618, 32.697046 ], [ -81.427505, 32.702242 ], [ -81.404932, 32.745559 ], [ -81.43194, 32.768911 ], [ -81.414456, 32.778149 ], [ -81.431235, 32.784141 ], [ -81.417984, 32.818196 ], [ -81.426475, 32.840773 ], [ -81.460722, 32.846038 ], [ -81.45339, 32.87388 ], [ -81.479445, 32.881082 ], [ -81.464069, 32.897814 ], [ -81.480812, 32.898614 ], [ -81.502427, 32.935353 ], [ -81.511347, 32.966721 ], [ -81.49983, 32.963816 ], [ -81.492253, 33.009342 ], [ -81.603243, 33.074419 ], [ -81.60132, 33.087049 ], [ -81.612903, 33.081024 ], [ -81.611657, 33.094259 ], [ -81.704634, 33.11645 ], [ -81.754135, 33.15055 ], [ -81.772435, 33.180949 ], [ -81.756935, 33.197848 ], [ -81.767935, 33.216347 ], [ -81.80649, 33.212126 ], [ -81.852937, 33.248744 ], [ -81.840036, 33.254645 ], [ -81.84691, 33.266599 ], [ -81.834408, 33.258378 ], [ -81.828336, 33.263045 ], [ -81.863336, 33.289244 ], [ -81.847636, 33.307143 ], [ -81.881237, 33.302543 ], [ -81.901954, 33.335876 ], [ -81.90613, 33.32162 ], [ -81.913737, 33.320042 ], [ -81.90893, 33.346268 ], [ -81.939737, 33.344941 ], [ -81.946337, 33.37064 ], [ -81.924837, 33.37414 ], [ -81.944893, 33.407962 ], [ -81.909629, 33.412603 ], [ -81.931742, 33.424506 ], [ -81.913126, 33.438333 ], [ -81.926336, 33.462937 ], [ -81.985938, 33.486536 ], [ -82.046335, 33.56383 ], [ -82.189141, 33.623722 ], [ -82.247472, 33.752591 ], [ -82.297479, 33.782974 ], [ -82.32448, 33.820033 ], [ -82.455105, 33.88165 ], [ -82.524515, 33.94336 ], [ -82.556835, 33.945353 ], [ -82.594192, 34.028866 ], [ -82.643759, 34.072306 ], [ -82.641641, 34.09209 ], [ -82.717459, 34.150546 ], [ -82.746656, 34.266407 ], [ -82.781812, 34.297917 ], [ -82.794701, 34.34058 ], [ -82.834806, 34.366302 ], [ -82.858837, 34.45522 ], [ -82.901551, 34.486764 ], [ -82.99509, 34.472483 ], [ -83.03336, 34.48309 ], [ -83.158677, 34.578999 ], [ -83.170278, 34.592398 ], [ -83.159954, 34.603464 ], [ -83.231339, 34.611187 ], [ -83.35391, 34.699219 ] ] ] ] } },
{ "type": "Feature", "properties": { "STATEFP": "37", "NAME": "North Carolina" }, "geometry": { "type": "MultiPolygon", "coordinates": [ [ [ [ -75.726807, 35.935844 ], [ -75.69115, 35.936932 ], [ -75.64512, 35.905788 ], [ -75.616833, 35.856331 ], [ -75.620454, 35.809253 ], [ -75.675054, 35.830204 ], [ -75.660086, 35.83861 ], [ -75.663356, 35.869835 ], [ -75.726807, 35.935844 ] ] ], [ [ [ -75.732476, 35.200351 ], [ -75.681027, 35.233347 ], [ -75.677224, 35.219368 ], [ -75.641335, 35.228687 ], [ -75.595463, 35.269255 ], [ -75.521782, 35.271777 ], [ -75.468709, 35.573991 ], [ -75.471394, 35.62166 ], [ -75.523446, 35.773568 ], [ -75.485892, 35.698519 ], [ -75.460621, 35.576975 ], [ -75.527818, 35.227657 ], [ -75.602238, 35.232636 ], [ -75.732476, 35.200351 ] ] ], [ [ [ -76.01528, 35.070655 ], [ -75.982242, 35.120439 ], [ -75.958236, 35.115384 ], [ -75.77361, 35.187281 ], [ -76.01528, 35.070655 ] ] ], [ [ [ -76.271213, 35.310305 ], [ -76.274184, 35.330182 ], [ -76.262399, 35.31386 ], [ -76.271213, 35.310305 ] ] ], [ [ [ -76.330138, 34.847942 ], [ -76.151783, 34.986784 ], [ -76.075916, 35.069929 ], [ -76.037792, 35.061914 ], [ -76.330138, 34.847942 ] ] ], [ [ [ -76.544002, 34.701246 ], [ -76.538298, 34.711993 ], [ -76.519521, 34.707108 ], [ -76.544002, 34.701246 ] ] ], [ [ [ -76.553628, 34.623165 ], [ -76.532237, 34.61049 ], [ -76.502004, 34.674706 ], [ -76.441539, 34.733794 ], [ -76.438116, 34.761292 ], [ -76.413587, 34.765119 ], [ -76.402559, 34.791357 ], [ -76.33753, 34.838813 ], [ -76.488124, 34.671031 ], [ -76.53547, 34.591552 ], [ -76.553628, 34.623165 ] ] ], [ [ [ -76.586309, 34.713947 ], [ -76.56064, 34.710039 ], [ -76.525701, 34.685222 ], [ -76.581556, 34.699097 ], [ -76.586309, 34.713947 ] ] ], [ [ [ -76.665486, 34.689743 ], [ -76.58928, 34.67197 ], [ -76.530241, 34.643582 ], [ -76.528815, 34.631536 ], [ -76.665486, 34.689743 ] ] ], [ [ [ -77.098513987700102, 34.646888298414503 ], [ -77.014632, 34.676035 ], [ -76.822206, 34.704724 ], [ -76.766684, 34.699957 ], [ -76.742061, 34.712384 ], [ -76.702606, 34.6998 ], [ -76.698898, 34.712305 ], [ -76.675701, 34.695658 ], [ -76.847394, 34.690811 ], [ -77.098513987700102, 34.646888298414503 ] ] ], [ [ [ -77.169219, 34.622383 ], [ -77.121207, 34.647962 ], [ -77.110369, 34.645146 ], [ -77.169219, 34.622383 ] ] ], [ [ [ -77.226927, 34.596717 ], [ -77.202399, 34.612837 ], [ -77.179487, 34.620427 ], [ -77.226927, 34.596717 ] ] ], [ [ [ -84.321869, 34.988408 ], [ -84.29024, 35.225572 ], [ -84.223718, 35.269078 ], [ -84.188417, 35.239979 ], [ -84.098068, 35.247209 ], [ -84.052612, 35.269982 ], [ -84.02141, 35.301383 ], [ -84.038327, 35.347813 ], [ -84.007586, 35.371661 ], [ -84.023007, 35.411684 ], [ -83.961053, 35.464143 ], [ -83.911773, 35.476028 ], [ -83.880074, 35.518745 ], [ -83.82559, 35.523829 ], [ -83.771736, 35.562118 ], [ -83.608889, 35.579451 ], [ -83.58559, 35.562941 ], [ -83.498335, 35.562981 ], [ -83.445802, 35.611803 ], [ -83.396626, 35.62272 ], [ -83.35156, 35.659858 ], [ -83.297154, 35.65775 ], [ -83.258117, 35.691924 ], [ -83.251247, 35.719916 ], [ -83.185685, 35.72989 ], [ -83.159208, 35.764892 ], [ -83.07403, 35.790016 ], [ -82.992053, 35.773948 ], [ -82.916551, 35.841369 ], [ -82.920609, 35.868472 ], [ -82.897273, 35.877882 ], [ -82.92001, 35.928422 ], [ -82.874159, 35.952698 ], [ -82.821861, 35.921839 ], [ -82.804997, 35.927168 ], [ -82.774905, 35.971978 ], [ -82.785558, 35.977795 ], [ -82.776001, 36.000103 ], [ -82.637165, 36.065805 ], [ -82.590963, 36.033606 ], [ -82.614362, 36.003506 ], [ -82.610889, 35.967409 ], [ -82.557874, 35.953901 ], [ -82.460658, 36.007809 ], [ -82.409458, 36.083409 ], [ -82.355157, 36.115609 ], [ -82.289455, 36.13571 ], [ -82.247521, 36.130865 ], [ -82.213852, 36.159112 ], [ -82.176849, 36.142214 ], [ -82.147948, 36.149516 ], [ -82.127146, 36.104417 ], [ -82.033141, 36.120422 ], [ -81.908137, 36.302013 ], [ -81.793597, 36.362209 ], [ -81.764927, 36.338672 ], [ -81.707438, 36.335171 ], [ -81.741995, 36.41096 ], [ -81.695311, 36.467912 ], [ -81.707963, 36.536209 ], [ -81.677535, 36.588117 ], [ -80.122183, 36.542646 ], [ -75.867647, 36.550412 ], [ -75.772511, 36.22944 ], [ -75.53633, 35.792608 ], [ -75.570477, 35.808826 ], [ -75.571381, 35.831105 ], [ -75.62291, 35.892321 ], [ -75.615399, 35.926433 ], [ -75.644539, 35.964417 ], [ -75.682294, 35.995845 ], [ -75.72983, 36.007285 ], [ -75.706418, 36.039196 ], [ -75.737089, 36.040784 ], [ -75.745873, 36.144062 ], [ -75.767264, 36.204978 ], [ -75.811852, 36.247699 ], [ -75.806838, 36.284912 ], [ -75.850809, 36.319678 ], [ -75.845936, 36.332603 ], [ -75.82205, 36.328008 ], [ -75.828942, 36.365721 ], [ -75.848551, 36.380169 ], [ -75.843322, 36.419961 ], [ -75.888326, 36.441583 ], [ -75.899909, 36.482124 ], [ -75.989099, 36.49514 ], [ -75.980998, 36.511329 ], [ -76.002627, 36.537114 ], [ -76.030673, 36.538832 ], [ -76.026395, 36.516486 ], [ -76.042557, 36.510565 ], [ -76.03195, 36.482496 ], [ -76.012338, 36.447462 ], [ -75.971966, 36.437173 ], [ -75.948242, 36.395863 ], [ -75.924514, 36.42545 ], [ -75.923332, 36.361863 ], [ -75.883381, 36.284739 ], [ -75.856791, 36.280658 ], [ -75.872325, 36.25475 ], [ -75.830108, 36.196514 ], [ -75.845173, 36.191847 ], [ -75.799433, 36.117667 ], [ -75.796505, 36.072842 ], [ -75.866739, 36.127479 ], [ -75.862871, 36.159607 ], [ -75.923292, 36.245948 ], [ -75.96891, 36.264221 ], [ -75.947873, 36.224387 ], [ -75.959952, 36.198875 ], [ -75.912563, 36.167818 ], [ -75.924635, 36.16455 ], [ -76.016985, 36.186367 ], [ -76.05396, 36.234825 ], [ -76.079581, 36.23824 ], [ -76.131018, 36.290991 ], [ -76.214784, 36.300609 ], [ -76.173908, 36.263594 ], [ -76.144281, 36.258891 ], [ -76.117188, 36.213512 ], [ -76.080107, 36.19944 ], [ -76.064225, 36.143775 ], [ -76.187542, 36.125442 ], [ -76.249101, 36.184934 ], [ -76.277147, 36.19088 ], [ -76.227472, 36.12525 ], [ -76.191716, 36.107197 ], [ -76.233722, 36.097855 ], [ -76.323257, 36.134849 ], [ -76.373572, 36.138208 ], [ -76.390282, 36.162486 ], [ -76.454694, 36.192799 ], [ -76.381964, 36.122946 ], [ -76.346419, 36.121023 ], [ -76.304005, 36.094527 ], [ -76.411198, 36.080698 ], [ -76.408108, 36.068019 ], [ -76.460321, 36.024137 ], [ -76.514114, 36.006516 ], [ -76.580426, 36.010554 ], [ -76.606809, 36.054185 ], [ -76.652234, 36.035285 ], [ -76.691898, 36.06629 ], [ -76.68857, 36.10701 ], [ -76.70497, 36.10989 ], [ -76.721446, 36.147838 ], [ -76.718906, 36.200978 ], [ -76.672171, 36.271978 ], [ -76.699979, 36.285391 ], [ -76.725022, 36.231118 ], [ -76.741335, 36.229235 ], [ -76.753457, 36.176684 ], [ -76.727312, 36.063216 ], [ -76.681915, 35.989595 ], [ -76.719153, 35.965087 ], [ -76.728298, 35.933578 ], [ -76.706661, 35.944874 ], [ -76.662426, 35.932072 ], [ -76.553806, 35.940155 ], [ -76.399552, 35.982094 ], [ -76.367227, 35.934382 ], [ -76.170524, 35.994523 ], [ -76.062522, 35.990749 ], [ -76.011421, 35.954201 ], [ -76.012847, 35.921872 ], [ -76.065374, 35.833861 ], [ -76.050486, 35.806689 ], [ -76.060145, 35.708706 ], [ -76.036377, 35.688439 ], [ -76.038041, 35.645765 ], [ -76.012847, 35.660829 ], [ -75.982899, 35.772561 ], [ -75.994118, 35.812532 ], [ -75.976007, 35.838485 ], [ -75.986053, 35.888993 ], [ -75.921578, 35.935921 ], [ -75.947294, 35.959835 ], [ -75.897572, 35.976132 ], [ -75.836284, 35.970501 ], [ -75.782499, 35.93342 ], [ -75.728022, 35.824513 ], [ -75.742367, 35.774875 ], [ -75.717173, 35.693651 ], [ -75.738135, 35.682024 ], [ -75.742605, 35.699634 ], [ -75.767324, 35.705618 ], [ -75.78083, 35.688421 ], [ -75.736071, 35.625499 ], [ -75.785101, 35.595547 ], [ -75.777973, 35.579761 ], [ -75.833395, 35.571533 ], [ -75.815835, 35.594668 ], [ -75.852809, 35.584678 ], [ -75.868799, 35.629924 ], [ -75.889622, 35.640637 ], [ -75.897393, 35.598053 ], [ -75.88237, 35.576117 ], [ -75.978383, 35.512962 ], [ -75.963054, 35.493903 ], [ -75.988841, 35.484905 ], [ -76.022659, 35.412194 ], [ -76.058711, 35.43465 ], [ -76.053947, 35.421225 ], [ -76.083438, 35.390985 ], [ -76.061809, 35.383235 ], [ -76.070841, 35.370638 ], [ -76.136916, 35.358039 ], [ -76.151921, 35.331372 ], [ -76.174232, 35.34699 ], [ -76.221054, 35.340398 ], [ -76.249814, 35.367731 ], [ -76.25757, 35.344397 ], [ -76.278811, 35.342918 ], [ -76.344886, 35.392535 ], [ -76.357483, 35.383622 ], [ -76.341558, 35.342337 ], [ -76.376022, 35.335551 ], [ -76.389332, 35.360365 ], [ -76.411911, 35.346408 ], [ -76.419992, 35.374902 ], [ -76.368178, 35.361141 ], [ -76.361523, 35.373739 ], [ -76.395987, 35.40106 ], [ -76.385291, 35.415008 ], [ -76.395511, 35.431665 ], [ -76.417616, 35.42508 ], [ -76.438294, 35.388273 ], [ -76.480838, 35.404548 ], [ -76.472274, 35.371375 ], [ -76.532177, 35.401254 ], [ -76.533075, 35.43231 ], [ -76.565452, 35.44948 ], [ -76.545725, 35.460903 ], [ -76.587081, 35.508899 ], [ -76.485354, 35.506578 ], [ -76.452272, 35.553218 ], [ -76.465389, 35.558414 ], [ -76.519893, 35.53069 ], [ -76.599203, 35.53985 ], [ -76.637945, 35.512962 ], [ -76.597382, 35.481932 ], [ -76.607046, 35.455482 ], [ -76.577559, 35.387576 ], [ -76.647927, 35.403385 ], [ -76.662901, 35.425467 ], [ -76.759235, 35.418906 ], [ -76.817155, 35.451997 ], [ -76.906047, 35.459354 ], [ -76.979207, 35.483351 ], [ -77.053171, 35.535208 ], [ -77.021322, 35.498451 ], [ -77.04509, 35.503288 ], [ -76.986383, 35.472517 ], [ -76.96618, 35.433989 ], [ -76.925023, 35.448802 ], [ -76.658861, 35.341561 ], [ -76.484166, 35.313638 ], [ -76.498869, 35.305888 ], [ -76.498157, 35.279554 ], [ -76.469733, 35.280886 ], [ -76.467439, 35.261336 ], [ -76.490718, 35.262707 ], [ -76.479175, 35.247281 ], [ -76.503416, 35.240681 ], [ -76.49605, 35.216995 ], [ -76.565452, 35.229227 ], [ -76.521006, 35.20612 ], [ -76.526711, 35.184755 ], [ -76.586368, 35.202042 ], [ -76.634142, 35.174264 ], [ -76.633666, 35.160663 ], [ -76.586606, 35.154445 ], [ -76.588032, 35.168824 ], [ -76.569255, 35.173487 ], [ -76.539545, 35.15464 ], [ -76.569493, 35.09846 ], [ -76.711625, 35.004481 ], [ -76.803607, 34.963781 ], [ -76.987572, 35.065589 ], [ -77.030354, 35.133066 ], [ -77.059589, 35.146866 ], [ -76.977405, 35.004926 ], [ -76.935757, 34.97313 ], [ -76.760825, 34.915851 ], [ -76.726599, 34.927934 ], [ -76.707585, 34.954236 ], [ -76.679776, 34.953847 ], [ -76.657434, 34.982478 ], [ -76.578525, 34.976246 ], [ -76.564702, 34.998339 ], [ -76.51157, 35.005075 ], [ -76.484166, 34.988125 ], [ -76.497476, 35.00818 ], [ -76.485813, 35.0406 ], [ -76.464676, 35.046716 ], [ -76.477511, 35.058391 ], [ -76.463469, 35.076411 ], [ -76.422607, 35.026672 ], [ -76.440433, 35.014604 ], [ -76.425462, 35.001464 ], [ -76.422845, 34.95073 ], [ -76.403117, 34.963392 ], [ -76.398364, 34.94547 ], [ -76.38743, 34.95112 ], [ -76.381488, 34.979168 ], [ -76.319454, 34.965924 ], [ -76.364138, 35.036597 ], [ -76.249314, 35.000668 ], [ -76.246962, 34.987347 ], [ -76.262411, 34.975273 ], [ -76.28808, 34.996304 ], [ -76.305668, 34.991436 ], [ -76.27786, 34.960665 ], [ -76.279524, 34.941378 ], [ -76.297604, 34.923658 ], [ -76.340845, 34.93339 ], [ -76.336804, 34.909809 ], [ -76.314087, 34.906322 ], [ -76.382201, 34.856971 ], [ -76.402404, 34.886611 ], [ -76.412149, 34.832198 ], [ -76.449465, 34.814833 ], [ -76.485354, 34.754905 ], [ -76.514114, 34.754319 ], [ -76.498427, 34.732054 ], [ -76.512687, 34.720333 ], [ -76.575673, 34.721701 ], [ -76.585893, 34.756662 ], [ -76.575673, 34.768378 ], [ -76.604432, 34.789852 ], [ -76.617267, 34.7879 ], [ -76.619365, 34.704193 ], [ -76.84193, 34.729352 ], [ -76.902657, 34.726495 ], [ -77.083332, 34.673234 ], [ -77.125864, 34.685242 ], [ -77.307042, 34.545138 ], [ -77.582702, 34.400677 ], [ -77.740137, 34.272546 ], [ -77.829369, 34.163252 ], [ -77.879484, 34.080578 ], [ -77.962794, 33.842316 ], [ -78.008329, 33.864174 ], [ -77.989785, 33.888003 ], [ -77.99591, 33.905637 ], [ -78.020671, 33.888269 ], [ -78.239228, 33.917452 ], [ -78.387122, 33.901959 ], [ -78.541856, 33.852959 ], [ -79.675299, 34.804744 ], [ -80.797543, 34.819786 ], [ -80.782042, 34.935782 ], [ -80.93495, 35.107409 ], [ -81.041489, 35.044703 ], [ -81.058029, 35.07319 ], [ -81.032806, 35.108049 ], [ -81.051037, 35.131654 ], [ -81.043625, 35.149877 ], [ -82.27492, 35.200071 ], [ -82.371298, 35.181449 ], [ -82.39293, 35.215402 ], [ -82.439595, 35.165863 ], [ -82.457128, 35.16395 ], [ -82.460092, 35.178143 ], [ -82.529973, 35.155617 ], [ -82.546374, 35.163731 ], [ -82.662381, 35.118123 ], [ -82.681443, 35.127918 ], [ -82.697677, 35.095726 ], [ -82.72701, 35.094142 ], [ -82.757704, 35.068019 ], [ -82.777376, 35.064143 ], [ -82.787867, 35.085024 ], [ -83.109557, 35.001197 ], [ -84.321869, 34.988408 ] ] ] ] } }
]
}
